OBJECT_NAME,OBJECT_ID,EPOCH,MEAN_MOTION,ECCENTRICITY,INCLINATION,RA_OF_ASC_NODE,ARG_OF_PERICENTER,MEAN_ANOMALY,EPHEMERIS_TYPE,CLASSIFICATION_TYPE,NORAD_CAT_ID,ELEMENT_SET_NO,REV_AT_EPOCH,BSTAR,MEAN_MOTION_DOT,MEAN_MOTION_DDOT
STARLINK-30224,2023-102N,2026-07-14T10:27:42.427008,15.27572950,.00011755,43.0020,252.8249,248.6345,111.4381,0,U,57416,999,16562,-.70477541E-4,-.22E-4,0
STARLINK-30043,2023-102P,2026-07-14T10:29:33.468288,15.27578300,.00016567,43.0022,252.8353,268.5534,91.5128,0,U,57417,999,16562,.383933E-6,-.252E-5,0
STARLINK-30221,2023-102Q,2026-07-14T15:55:01.142688,15.27577388,.00015695,43.0013,258.7773,266.6652,93.4020,0,U,57418,999,16557,-.22099017E-4,-.87E-5,0
STARLINK-30188,2023-105C,2026-07-14T22:00:03.000096,15.51162700,.0001967,42.9992,262.3140,271.4575,233.2813,0,U,57432,999,581,.22730705E-1,.1506558E-1,0
STARLINK-30105,2023-105D,2026-07-14T12:39:16.576416,15.27574661,.00014633,43.0038,34.5220,251.1512,108.9181,0,U,57433,999,16772,-.28739608E-4,-.1053E-4,0
STARLINK-30102,2023-105E,2026-07-14T11:45:13.510944,15.27575248,.00013028,42.9993,263.8051,273.1926,86.8777,0,U,57434,999,16492,-.4970471E-5,-.399E-5,0
STARLINK-30158,2023-105J,2026-07-14T11:48:55.694592,15.27577237,.00015137,43.0016,263.8241,273.3922,86.6757,0,U,57438,999,16497,-.6645578E-5,-.445E-5,0
STARLINK-30160,2023-105M,2026-07-14T11:36:24.884640,15.27573298,.00018077,43.0034,270.5782,281.0781,78.9867,0,U,57441,999,16473,-.2364888E-5,-.327E-5,0
STARLINK-30146,2023-105N,2026-07-14T11:54:29.084544,15.27565146,.00014071,43.0018,263.8505,270.5839,89.4851,0,U,57442,999,16503,.78008758E-4,.1884E-4,0
STARLINK-30197,2023-105P,2026-07-14T11:24:52.926912,15.27573427,.00014443,43.0014,263.6991,279.3866,80.6823,0,U,57443,999,16497,-.14646278E-4,-.665E-5,0
STARLINK-30181,2023-105Q,2026-07-14T16:14:01.903488,15.27582077,.00016268,43.0013,266.0342,268.0308,92.0357,0,U,57444,999,16502,.76197008E-4,.1835E-4,0
STARLINK-30215,2023-105R,2026-07-14T05:48:57.128832,15.27576444,.00010791,43.0024,265.3848,242.4917,117.5825,0,U,57445,999,16477,-.2813315E-5,-.339E-5,0
STARLINK-30162,2023-105S,2026-07-14T11:37:54.687936,15.27575251,.00009091,43.0011,252.7319,256.8491,103.2259,0,U,57446,999,16510,-.25280676E-4,-.957E-5,0
STARLINK-30178,2023-105T,2026-07-14T12:00:02.110752,15.27571373,.00012801,43.0056,263.8811,254.8474,105.2236,0,U,57447,999,16497,-.2386427E-4,-.919E-5,0
STARLINK-30196,2023-105U,2026-07-14T12:54:37.534752,15.27577159,.0002208,43.0041,266.7131,286.3859,73.6750,0,U,57448,999,16478,.19179E-4,.265E-5,0
STARLINK-30225,2023-105V,2026-07-14T11:26:00.883968,15.27579188,.00017488,43.0045,267.1087,269.7102,90.3549,0,U,57449,999,16499,.1246212E-4,.81E-6,0
STARLINK-30217,2023-105W,2026-07-14T03:50:50.421120,15.27578499,.0001574,43.0026,254.6409,238.8454,121.2243,0,U,57450,999,16505,-.1989859E-4,-.81E-5,0
STARLINK-30216,2023-105X,2026-07-14T04:34:56.587008,15.27579555,.00019901,43.0042,265.0162,278.7543,81.3083,0,U,57451,999,16477,-.271699E-6,-.27E-5,0
STARLINK-30165,2023-107A,2026-07-14T09:37:04.513152,15.27571156,.00027313,43.0068,340.7092,287.1876,72.8676,0,U,57457,999,16451,-.13430755E-4,-.632E-5,0
STARLINK-30140,2023-107B,2026-07-14T10:37:12.531360,15.27582976,.00014939,43.0063,343.5708,274.0446,86.0235,0,U,57458,999,16449,.43613791E-4,.938E-5,0
STARLINK-30077,2023-107D,2026-07-14T16:26:47.368608,15.27577060,.00010091,43.0011,338.5461,263.3799,96.6938,0,U,57460,999,16457,-.11006305E-4,-.565E-5,0
STARLINK-30229,2023-107E,2026-07-14T10:20:03.591168,15.27577768,.00020417,43.0047,347.7472,292.6454,67.4181,0,U,57461,999,16444,.3890187E-4,.808E-5,0
STARLINK-30088,2023-107F,2026-07-14T17:35:15.454464,15.27575208,.00017099,43.0027,338.8925,213.0735,147.0010,0,U,57462,999,16457,-.31519509E-4,-.1129E-4,0
STARLINK-30116,2023-107J,2026-07-14T17:20:27.068064,15.27575204,.00022828,43.0068,338.8204,265.5642,94.4949,0,U,57465,999,16457,-.14615428E-4,-.665E-5,0
STARLINK-30092,2023-107L,2026-07-13T17:53:39.169536,15.27572546,.00030936,43.0080,344.3888,286.6072,73.4440,0,U,57467,999,16442,-.98923889E-4,-.2984E-4,0
STARLINK-30039,2023-107M,2026-07-14T20:39:54.173088,15.27553041,.00023859,43.0067,338.1396,277.9212,82.1369,0,U,57468,999,16459,-.74736686E-4,-.2317E-4,0
STARLINK-30171,2023-107N,2026-07-12T21:03:00.158688,15.27584044,.00012483,43.0036,352.4578,279.1508,80.9203,0,U,57469,999,16425,.10519704E-3,.2634E-4,0
STARLINK-30186,2023-107P,2026-07-14T22:00:03.000096,15.52117963,.00016956,43.0005,340.4770,290.1279,298.3449,0,U,57470,999,578,.26127982E-2,.165065E-2,0
STARLINK-30204,2023-107R,2026-07-14T10:49:00.975072,15.27554916,.00011439,43.0044,340.2162,253.5043,106.5683,0,U,57472,999,16453,.20743884E-3,.5446E-4,0
STARLINK-30155,2023-107U,2026-07-14T10:12:01.702944,15.27566174,.00024947,43.0045,340.0316,302.0053,58.0556,0,U,57475,999,16453,-.24510196E-4,-.937E-5,0
