STARLINK-30224          
1 57416U 23102N   26195.43590772 -.00002200  00000+0 -70478-4 0  9996
2 57416  43.0020 252.8249 0001175 248.6345 111.4381 15.27572950165624
STARLINK-30043          
1 57417U 23102P   26195.43719292 -.00000252  00000+0  38393-6 0  9993
2 57417  43.0022 252.8353 0001656 268.5534  91.5128 15.27578300165620
STARLINK-30221          
1 57418U 23102Q   26195.66320767 -.00000870  00000+0 -22099-4 0  9995
2 57418  43.0013 258.7773 0001569 266.6652  93.4020 15.27577388165576
STARLINK-30188          
1 57432U 23105C   26195.91670139  .01506558  00000+0  22731-1 0  9996
2 57432  42.9992 262.3140 0001967 271.4575 233.2813 15.51162700  5814
STARLINK-30105          
1 57433U 23105D   26195.52727519 -.00001053  00000+0 -28740-4 0  9999
2 57433  43.0038  34.5220 0001463 251.1512 108.9181 15.27574661167724
STARLINK-30102          
1 57434U 23105E   26195.48973971 -.00000399  00000+0 -49705-5 0  9997
2 57434  42.9993 263.8051 0001302 273.1926  86.8777 15.27575248164923
STARLINK-30158          
1 57438U 23105J   26195.49231128 -.00000445  00000+0 -66456-5 0  9997
2 57438  43.0016 263.8241 0001513 273.3922  86.6757 15.27577237164979
STARLINK-30160          
1 57441U 23105M   26195.48362135 -.00000327  00000+0 -23649-5 0  9999
2 57441  43.0034 270.5782 0001807 281.0781  78.9867 15.27573298164736
STARLINK-30146          
1 57442U 23105N   26195.49616996  .00001884  00000+0  78009-4 0  9994
2 57442  43.0018 263.8505 0001407 270.5839  89.4851 15.27565146165037
STARLINK-30197          
1 57443U 23105P   26195.47561258 -.00000665  00000+0 -14646-4 0  9998
2 57443  43.0014 263.6991 0001444 279.3866  80.6823 15.27573427164974
STARLINK-30181          
1 57444U 23105Q   26195.67641092  .00001835  00000+0  76197-4 0  9993
2 57444  43.0013 266.0342 0001626 268.0308  92.0357 15.27582077165026
STARLINK-30215          
1 57445U 23105R   26195.24232788 -.00000339  00000+0 -28133-5 0  9993
2 57445  43.0024 265.3848 0001079 242.4917 117.5825 15.27576444164771
STARLINK-30162          
1 57446U 23105S   26195.48466074 -.00000957  00000+0 -25281-4 0  9993
2 57446  43.0011 252.7319 0000909 256.8491 103.2259 15.27575251165104
STARLINK-30178          
1 57447U 23105T   26195.50002443 -.00000919  00000+0 -23864-4 0  9996
2 57447  43.0056 263.8811 0001280 254.8474 105.2236 15.27571373164978
STARLINK-30196          
1 57448U 23105U   26195.53793443  .00000265  00000+0  19179-4 0  9993
2 57448  43.0041 266.7131 0002208 286.3859  73.6750 15.27577159164784
STARLINK-30225          
1 57449U 23105V   26195.47639912  .00000081  00000+0  12462-4 0  9991
2 57449  43.0045 267.1087 0001748 269.7102  90.3549 15.27579188164997
STARLINK-30217          
1 57450U 23105W   26195.16030580 -.00000810  00000+0 -19899-4 0  9998
2 57450  43.0026 254.6409 0001574 238.8454 121.2243 15.27578499165058
STARLINK-30216          
1 57451U 23105X   26195.19093272 -.00000270  00000+0 -27170-6 0  9992
2 57451  43.0042 265.0162 0001990 278.7543  81.3083 15.27579555164773
STARLINK-30165          
1 57457U 23107A   26195.40074668 -.00000632  00000+0 -13431-4 0  9997
2 57457  43.0068 340.7092 0002731 287.1876  72.8676 15.27571156164511
STARLINK-30140          
1 57458U 23107B   26195.44250615  .00000938  00000+0  43614-4 0  9993
2 57458  43.0063 343.5708 0001493 274.0446  86.0235 15.27582976164491
STARLINK-30077          
1 57460U 23107D   26195.68527047 -.00000565  00000+0 -11006-4 0  9996
2 57460  43.0011 338.5461 0001009 263.3799  96.6938 15.27577060164576
STARLINK-30229          
1 57461U 23107E   26195.43059712  .00000808  00000+0  38902-4 0  9991
2 57461  43.0047 347.7472 0002041 292.6454  67.4181 15.27577768164447
STARLINK-30088          
1 57462U 23107F   26195.73281776 -.00001129  00000+0 -31520-4 0  9990
2 57462  43.0027 338.8925 0001709 213.0735 147.0010 15.27575208164576
STARLINK-30116          
1 57465U 23107J   26195.72253551 -.00000665  00000+0 -14615-4 0  9992
2 57465  43.0068 338.8204 0002282 265.5642  94.4949 15.27575204164572
STARLINK-30092          
1 57467U 23107L   26194.74559224 -.00002984  00000+0 -98924-4 0  9992
2 57467  43.0080 344.3888 0003093 286.6072  73.4440 15.27572546164423
STARLINK-30039          
1 57468U 23107M   26195.86104367 -.00002317  00000+0 -74737-4 0  9997
2 57468  43.0067 338.1396 0002385 277.9212  82.1369 15.27553041164590
STARLINK-30171          
1 57469U 23107N   26193.87708517  .00002634  00000+0  10520-3 0  9993
2 57469  43.0036 352.4578 0001248 279.1508  80.9203 15.27584044164250
STARLINK-30186          
1 57470U 23107P   26195.91670139  .00165065  00000+0  26128-2 0  9998
2 57470  43.0005 340.4770 0001695 290.1279 298.3449 15.52117963  5782
STARLINK-30204          
1 57472U 23107R   26195.45070573  .00005446  00000+0  20744-3 0  9990
2 57472  43.0044 340.2162 0001143 253.5043 106.5683 15.27554916164534
STARLINK-30155          
1 57475U 23107U   26195.42501971 -.00000937  00000+0 -24510-4 0  9999
2 57475  43.0045 340.0316 0002494 302.0053  58.0556 15.27566174164537
